IRIDIUM 26              
1 24903U 97043A   25245.53986272  .00000770  00000+0  25226-3 0  9994
2 24903  86.3896  78.1047 0002081  93.9808 266.1628 14.37196509467851
IRIDIUM 22              
1 24907U 97043E   25245.60342913  .00000654  00000+0  21840-3 0  9993
2 24907  86.3901  81.6874 0002186  89.9968 270.1479 14.36003638467888
DUMMY MASS 1            
1 24925U 97048A   25245.60285697  .00000757  00000+0  81419-4 0  9996
2 24925  86.3304  99.5284 0004936 215.5396 144.5501 14.87042409516638
DUMMY MASS 2            
1 24926U 97048B   25245.10678034  .00000695  00000+0  74905-4 0  9996
2 24926  86.3307 101.3811 0005331 235.6780 124.3941 14.86793344516331
IRIDIUM 29              
1 24944U 97051A   25245.59863794  .00000727  00000+0  24095-3 0  9992
2 24944  86.3933 111.4319 0002219  81.6995 278.4453 14.36523609464386
IRIDIUM 33              
1 24946U 97051C   25245.59594619  .00000432  00000+0  14493-3 0  9995
2 24946  86.3846 110.6995 0007806 170.5362 189.5983 14.34932889463847
IRIDIUM 28              
1 24948U 97051E   25245.59283559  .00000602  00000+0  19498-3 0  9994
2 24948  86.3932 108.9043 0002045 100.9422 259.2006 14.37432573464966
IRIDIUM 36              
1 24967U 97056C   25245.47441901  .00000654  00000+0  21123-3 0  9999
2 24967  86.4006 140.5624 0002310  90.1244 270.0219 14.37660902463329
